{
  "norad_id": 66857,
  "name": "STARLINK-36083",
  "history": [
    {
      "epoch": "2026-05-04T01:56:55.987584Z",
      "apogee_km": 484.24933301250167,
      "perigee_km": 481.57695398161013,
      "latitude_deg": 1.4395627235252043e-05,
      "longitude_deg": 139.7316729774852,
      "height_km": 482.7581998355183,
      "semi_major_axis_km": 6861.050143497056,
      "eccentricity": 0.00019475,
      "inclination_deg": 43.0029,
      "raan_deg": 30.9406,
      "arg_perigee_deg": 267.0994,
      "mean_anomaly_deg": 92.9635,
      "mean_motion_rev_day": 15.27625404
    },
    {
      "epoch": "2026-05-05T17:10:49.064160Z",
      "apogee_km": 483.59266149753876,
      "perigee_km": 482.3192426456344,
      "latitude_deg": -3.249735070537591e-05,
      "longitude_deg": -99.58281223621051,
      "height_km": 482.7683132178355,
      "semi_major_axis_km": 6861.092952071586,
      "eccentricity": 9.28e-05,
      "inclination_deg": 43.002,
      "raan_deg": 21.7085,
      "arg_perigee_deg": 266.7724,
      "mean_anomaly_deg": 93.3021,
      "mean_motion_rev_day": 15.27611107
    },
    {
      "epoch": "2026-05-06T01:01:37.561440Z",
      "apogee_km": 484.21903114086035,
      "perigee_km": 482.3140310644849,
      "latitude_deg": 4.362721775803007e-05,
      "longitude_deg": 140.54743885925646,
      "height_km": 482.68185070788144,
      "semi_major_axis_km": 6861.403531102672,
      "eccentricity": 0.00013882,
      "inclination_deg": 43.0022,
      "raan_deg": 19.863,
      "arg_perigee_deg": 292.3099,
      "mean_anomaly_deg": 67.7606,
      "mean_motion_rev_day": 15.27507388
    },
    {
      "epoch": "2026-05-07T17:49:43.688064Z",
      "apogee_km": 484.03625029323484,
      "perigee_km": 481.91616631186935,
      "latitude_deg": 3.083848100608117e-05,
      "longitude_deg": -122.75367495212573,
      "height_km": 482.56045311706936,
      "semi_major_axis_km": 6861.113208302551,
      "eccentricity": 0.0001545,
      "inclination_deg": 43.0042,
      "raan_deg": 10.2631,
      "arg_perigee_deg": 280.4927,
      "mean_anomaly_deg": 79.5751,
      "mean_motion_rev_day": 15.27604342
    },
    {
      "epoch": "2026-05-08T01:40:29.868096Z",
      "apogee_km": 484.01928076572676,
      "perigee_km": 481.79561625996394,
      "latitude_deg": 4.338460106508513e-05,
      "longitude_deg": 117.38599015085585,
      "height_km": 482.5068057878387,
      "semi_major_axis_km": 6861.0444485128455,
      "eccentricity": 0.00016205,
      "inclination_deg": 43.0054,
      "raan_deg": 8.4174,
      "arg_perigee_deg": 279.219,
      "mean_anomaly_deg": 80.8479,
      "mean_motion_rev_day": 15.27627306
    },
    {
      "epoch": "2026-05-09T15:20:14.250048Z",
      "apogee_km": 486.55306818909867,
      "perigee_km": 479.5368235312617,
      "latitude_deg": -2.6714876664645015e-06,
      "longitude_deg": -97.95902449905648,
      "height_km": 482.1354981243006,
      "semi_major_axis_km": 6861.181945860179,
      "eccentricity": 0.0005113,
      "inclination_deg": 43.0032,
      "raan_deg": 359.5541,
      "arg_perigee_deg": 281.3216,
      "mean_anomaly_deg": 78.7061,
      "mean_motion_rev_day": 15.27581386
    },
    {
      "epoch": "2026-05-10T00:45:11.094624Z",
      "apogee_km": 484.4512045481224,
      "perigee_km": 481.68833380630895,
      "latitude_deg": 2.3394118447746213e-05,
      "longitude_deg": 118.20265738958265,
      "height_km": 482.635570450701,
      "semi_major_axis_km": 6861.206769177215,
      "eccentricity": 0.00020134,
      "inclination_deg": 43.0057,
      "raan_deg": 357.3393,
      "arg_perigee_deg": 278.8289,
      "mean_anomaly_deg": 81.2335,
      "mean_motion_rev_day": 15.27573096
    },
    {
      "epoch": "2026-05-11T20:41:33.386208Z",
      "apogee_km": 483.494714788073,
      "perigee_km": 482.40929050785326,
      "latitude_deg": 5.49002220141351e-05,
      "longitude_deg": 166.96387612833732,
      "height_km": 482.7419137718375,
      "semi_major_axis_km": 6861.089002647963,
      "eccentricity": 7.91e-05,
      "inclination_deg": 42.999,
      "raan_deg": 346.9979,
      "arg_perigee_deg": 91.6342,
      "mean_anomaly_deg": 268.4601,
      "mean_motion_rev_day": 15.27612426
    },
    {
      "epoch": "2026-05-11T23:49:52.074048Z",
      "apogee_km": 484.3176603924712,
      "perigee_km": 481.69697770836683,
      "latitude_deg": -5.6652664543853655e-06,
      "longitude_deg": 119.01915090549535,
      "height_km": 482.71951242927145,
      "semi_major_axis_km": 6861.144319050419,
      "eccentricity": 0.00019098,
      "inclination_deg": 43.0043,
      "raan_deg": 346.26,
      "arg_perigee_deg": 272.8608,
      "mean_anomaly_deg": 87.2025,
      "mean_motion_rev_day": 15.27593952
    },
    {
      "epoch": "2026-05-13T15:03:46.909728Z",
      "apogee_km": 483.9533690144626,
      "perigee_km": 482.09948265680123,
      "latitude_deg": 1.4099048757849437e-05,
      "longitude_deg": -120.30550592588757,
      "height_km": 483.32504989734133,
      "semi_major_axis_km": 6861.163425835632,
      "eccentricity": 0.0001351,
      "inclination_deg": 42.9991,
      "raan_deg": 337.025,
      "arg_perigee_deg": 235.7013,
      "mean_anomaly_deg": 124.3711,
      "mean_motion_rev_day": 15.27587571
    },
    {
      "epoch": "2026-05-14T06:45:21.012480Z",
      "apogee_km": 484.28986658908616,
      "perigee_km": 481.7899281747568,
      "latitude_deg": 4.631781915383188e-06,
      "longitude_deg": -0.0288911772751002,
      "height_km": 482.79574495199176,
      "semi_major_axis_km": 6861.176897381922,
      "eccentricity": 0.00018218,
      "inclination_deg": 43.0045,
      "raan_deg": 333.3382,
      "arg_perigee_deg": 270.9945,
      "mean_anomaly_deg": 89.0698,
      "mean_motion_rev_day": 15.27583072
    },
    {
      "epoch": "2026-05-14T22:26:54.781728Z",
      "apogee_km": 484.1783972925814,
      "perigee_km": 481.86989101401923,
      "latitude_deg": -4.35572934753075e-05,
      "longitude_deg": 120.2416755188369,
      "height_km": 482.90287553316716,
      "semi_major_axis_km": 6861.1611441533,
      "eccentricity": 0.00016823,
      "inclination_deg": 43.003,
      "raan_deg": 329.644,
      "arg_perigee_deg": 264.956,
      "mean_anomaly_deg": 95.1099,
      "mean_motion_rev_day": 15.27588333
    }
  ]
}